[{"OBJECT_NAME":"STARLINK-1496","OBJECT_ID":"2020-038BC","EPOCH":"2026-03-10T00:00:02.999808","MEAN_MOTION":15.48347151,"ECCENTRICITY":0.00033744,"INCLINATION":53.051,"RA_OF_ASC_NODE":176.3369,"ARG_OF_PERICENTER":214.9086,"MEAN_ANOMALY":342.5433,"EPHEMERIS_TYPE":0,"CLASSIFICATION_TYPE":"U","NORAD_CAT_ID":45780,"ELEMENT_SET_NO":999,"REV_AT_EPOCH":585,"BSTAR":0.00060703764,"MEAN_MOTION_DOT":0.0003234,"MEAN_MOTION_DDOT":0},{"OBJECT_NAME":"NOAA 16 DEB","OBJECT_ID":"2000-055SK","EPOCH":"2026-03-05T05:58:49.594368","MEAN_MOTION":15.3641659,"ECCENTRICITY":0.0010286,"INCLINATION":99.0048,"RA_OF_ASC_NODE":336.64,"ARG_OF_PERICENTER":96.489,"MEAN_ANOMALY":263.752,"EPHEMERIS_TYPE":0,"CLASSIFICATION_TYPE":"U","NORAD_CAT_ID":42391,"ELEMENT_SET_NO":999,"REV_AT_EPOCH":52415,"BSTAR":0.017602,"MEAN_MOTION_DOT":0.00674336,"MEAN_MOTION_DDOT":0}]
